OBJECT_NAME,OBJECT_ID,EPOCH,MEAN_MOTION,ECCENTRICITY,INCLINATION,RA_OF_ASC_NODE,ARG_OF_PERICENTER,MEAN_ANOMALY,EPHEMERIS_TYPE,CLASSIFICATION_TYPE,NORAD_CAT_ID,ELEMENT_SET_NO,REV_AT_EPOCH,BSTAR,MEAN_MOTION_DOT,MEAN_MOTION_DDOT
IONOSFERA-M 2,2024-199B,2026-07-23T05:38:06.532512,14.22763549,.00008292,98.7123,76.9287,131.2524,228.8725,0,U,61736,999,13595,.30838744E-4,.25E-6,0
PRSC-EO1,2025-012A,2026-07-23T07:44:50.633664,15.17697366,.00073001,97.4210,276.0725,123.7098,236.4833,0,U,62725,999,8367,.34576094E-3,.6909E-4,0
BIOMASS,2025-090A,2026-07-23T05:47:02.310144,14.67538024,.000147,98.0752,31.0317,87.5860,272.5512,0,U,63772,999,6597,.11871695E-3,.625E-5,0
GOSAT-GW (IBUKI GW),2025-141A,2026-07-23T06:11:43.298592,14.67552914,.00014964,98.0565,140.9890,81.7585,278.3789,0,U,64694,999,5713,.14480146E-4,.34E-6,0
IONOSFERA-M 3,2025-155A,2026-07-23T06:50:05.330688,14.21491921,.0002458,98.6046,165.2854,100.0084,260.1371,0,U,64876,999,5153,.41083893E-4,.47E-6,0
IONOSFERA-M 4,2025-155B,2026-07-23T07:40:10.248384,14.21494354,.00019097,98.6045,165.2364,91.3689,268.7708,0,U,64877,999,5153,.39822556E-4,.44E-6,0
MICROCARB,2025-156A,2026-07-23T03:49:13.164096,14.72891772,.00182056,98.0068,280.7492,146.1783,214.0590,0,U,64899,999,5326,.81853984E-4,.475E-5,0
CO3D 3,2025-156B,2026-07-23T06:12:15.687360,15.20213334,.00017125,97.4334,282.4331,88.8312,271.3120,0,U,64900,999,5501,.1725878E-3,.3672E-4,0
CO3D 4,2025-156C,2026-07-23T06:12:29.160576,15.20213908,.00021432,97.4333,282.4332,138.1444,221.9955,0,U,64901,999,5501,.18320134E-3,.3902E-4,0
CO3D 2,2025-156D,2026-07-23T05:24:27.970272,15.20212274,.00011652,97.4334,282.2991,93.0816,267.0552,0,U,64902,999,5500,.19609285E-3,.4181E-4,0
CO3D 1,2025-156E,2026-07-23T05:24:41.511744,15.20199507,.00013302,97.4333,282.2992,99.5240,260.6145,0,U,64903,999,5500,.19838914E-3,.4229E-4,0
PRSC-S1,2025-164A,2026-07-23T03:04:01.723008,15.06687640,.0007712,41.1304,85.3547,245.0897,114.9116,0,U,65055,999,5385,.359536E-3,.5261E-4,0
SENTINEL-6B,2025-264A,2026-07-23T01:53:31.369920,12.80930301,.00078306,66.0410,60.6315,268.4652,91.5466,0,U,66514,999,3176,.10322367E-4,-.59E-6,0
CAS500-3,2025-274F,2026-07-23T06:00:14.602464,14.88397958,.00056196,97.7433,131.4809,15.1705,344.9679,0,U,66655,999,3551,.11977173E-3,.1056E-4,0
CSG-3,2026-001A,2026-07-23T02:45:03.770208,14.82167478,.00014724,97.8899,27.1982,92.3983,267.7398,0,U,67304,999,2978,.40750389E-4,.272E-5,0
PRSC-E03,2026-092A,2026-07-23T05:45:25.096320,15.06833457,.00048685,37.9999,237.0575,300.7763,59.2519,0,U,68835,999,1339,.12776935E-3,.1832E-4,0
CAS500-2,2026-100AK,2026-07-23T05:07:53.298048,15.20183366,.00077169,97.3843,101.3699,230.3220,129.7336,0,U,69013,999,1228,.26601287E-3,.5697E-4,0
