IONOSFERA-M 2           
1 61736U 24199B   26204.23479783  .00000025  00000+0  30839-4 0  9998
2 61736  98.7123  76.9287 0000829 131.2524 228.8725 14.22763549135951
PRSC-EO1                
1 62725U 25012A   26204.32280826  .00006909  00000+0  34576-3 0  9998
2 62725  97.4210 276.0725 0007300 123.7098 236.4833 15.17697366 83670
BIOMASS                 
1 63772U 25090A   26204.24099896  .00000625  00000+0  11872-3 0  9996
2 63772  98.0752  31.0317 0001470  87.5860 272.5512 14.67538024 65970
GOSAT-GW (IBUKI GW)     
1 64694U 25141A   26204.25814003  .00000034  00000+0  14480-4 0  9996
2 64694  98.0565 140.9890 0001496  81.7585 278.3789 14.67552914 57133
IONOSFERA-M 3           
1 64876U 25155A   26204.28478392  .00000047  00000+0  41084-4 0  9997
2 64876  98.6046 165.2854 0002458 100.0084 260.1371 14.21491921 51537
IONOSFERA-M 4           
1 64877U 25155B   26204.31956306  .00000044  00000+0  39823-4 0  9993
2 64877  98.6045 165.2364 0001909  91.3689 268.7708 14.21494354 51537
MICROCARB               
1 64899U 25156A   26204.15918014  .00000475  00000+0  81854-4 0  9993
2 64899  98.0068 280.7492 0018205 146.1783 214.0590 14.72891772 53262
CO3D 3                  
1 64900U 25156B   26204.25851490  .00003672  00000+0  17259-3 0  9990
2 64900  97.4334 282.4331 0001712  88.8312 271.3120 15.20213334 55016
CO3D 4                  
1 64901U 25156C   26204.25867084  .00003902  00000+0  18320-3 0  9993
2 64901  97.4333 282.4332 0002143 138.1444 221.9955 15.20213908 55015
CO3D 2                  
1 64902U 25156D   26204.22532373  .00004181  00000+0  19609-3 0  9992
2 64902  97.4334 282.2991 0001165  93.0816 267.0552 15.20212274 55009
CO3D 1                  
1 64903U 25156E   26204.22548046  .00004229  00000+0  19839-3 0  9995
2 64903  97.4333 282.2992 0001330  99.5240 260.6145 15.20199507 55006
PRSC-S1                 
1 65055U 25164A   26204.12779772  .00005261  00000+0  35954-3 0  9997
2 65055  41.1304  85.3547 0007712 245.0897 114.9116 15.06687640 53857
SENTINEL-6B             
1 66514U 25264A   26204.07883530 -.00000059  00000+0  10322-4 0  9995
2 66514  66.0410  60.6315 0007830 268.4652  91.5466 12.80930301 31768
CAS500-3                
1 66655U 25274F   26204.25016901  .00001056  00000+0  11977-3 0  9995
2 66655  97.7433 131.4809 0005619  15.1705 344.9679 14.88397958 35517
CSG-3                   
1 67304U 26001A   26204.11462697  .00000272  00000+0  40750-4 0  9999
2 67304  97.8899  27.1982 0001472  92.3983 267.7398 14.82167478 29785
PRSC-E03                
1 68835U 26092A   26204.23987380  .00001832  00000+0  12777-3 0  9993
2 68835  37.9999 237.0575 0004868 300.7763  59.2519 15.06833457 13398
CAS500-2                
1 69013U 26100AK  26204.21381132  .00005697  00000+0  26601-3 0  9997
2 69013  97.3843 101.3699 0007716 230.3220 129.7336 15.20183366 12286
